{"type": "FeatureCollection", "features": [ {"type": "Feature", "properties": {"norad_id": 41774, "name": "SKYSAT-C3", "group": "resource", "lat": -55.388791242461465, "lon": -172.92488662463592, "alt_km": 441.5337201158418, "timestamp": "2025-12-09T07:41:32.860325+00:00", "meta": {"OBJECT_NAME": "SKYSAT-C3", "OBJECT_ID": "2016-058E", "EPOCH": "2025-12-08T19:47:14.322912", "MEAN_MOTION": 15.4418834, "ECCENTRICITY": 0.00016067, "INCLINATION": 96.93, "RA_OF_ASC_NODE": 16.7531, "ARG_OF_PERICENTER": 105.459, "MEAN_ANOMALY": 254.6837, "EPHEMERIS_TYPE": 0, "CLASSIFICATION_TYPE": "U", "NORAD_CAT_ID": 41774, "ELEMENT_SET_NO": 999, "REV_AT_EPOCH": 51665, "BSTAR": 0.00057945312, "MEAN_MOTION_DOT": 0.00026551, "MEAN_MOTION_DDOT": 0}, "tle": {"line1": "1 41774U 16058E   25342.82447133  .00026551  00000+0  57945-3 0  9992", "line2": "2 41774  96.9300  16.7531 0001606 105.4590 254.6837 15.44188340516658"}}, "geometry": {"type": "Point", "coordinates": [-172.92488662463592, -55.388791242461465]}}, {"type": "Feature", "properties": {"norad_id": 41785, "name": "ALSAT 1B", "group": "resource", "lat": -78.84019906772625, "lon": 131.37990294550036, "alt_km": 668.2232401134934, "timestamp": "2025-12-09T07:41:32.860341+00:00", "meta": {"OBJECT_NAME": "ALSAT 1B", "OBJECT_ID": "2016-059C", "EPOCH": "2025-12-08T23:58:52.745376", "MEAN_MOTION": 14.72068946, "ECCENTRICITY": 0.00105926, "INCLINATION": 97.781, "RA_OF_ASC_NODE": 354.9502, "ARG_OF_PERICENTER": 113.6796, "MEAN_ANOMALY": 246.5525, "EPHEMERIS_TYPE": 0, "CLASSIFICATION_TYPE": "U", "NORAD_CAT_ID": 41785, "ELEMENT_SET_NO": 999, "REV_AT_EPOCH": 49259, "BSTAR": 0.00010646448, "MEAN_MOTION_DOT": 6.23e-06, "MEAN_MOTION_DDOT": 0}, "tle": {"line1": "1 41785U 16059C   25342.99922159  .00000623  00000+0  10646-3 0  9998", "line2": "2 41785  97.7810 354.9502 0010592 113.6796 246.5525 14.72068946492592"}}, "geometry": {"type": "Point", "coordinates": [131.37990294550036, -78.84019906772625]}}, {"type": "Feature", "properties": {"norad_id": 41787, "name": "PATHFINDER 1", "group": "resource", "lat": 38.154004128555286, "lon": -19.94040716714616, "alt_km": 654.0241239353127, "timestamp": "2025-12-09T07:41:32.860351+00:00", "meta": {"OBJECT_NAME": "PATHFINDER 1", "OBJECT_ID": "2016-059E", "EPOCH": "2025-12-08T23:20:03.762528", "MEAN_MOTION": 14.67309943, "ECCENTRICITY": 0.00300561, "INCLINATION": 97.8138, "RA_OF_ASC_NODE": 345.9207, "ARG_OF_PERICENTER": 92.6207, "MEAN_ANOMALY": 267.844, "EPHEMERIS_TYPE": 0, "CLASSIFICATION_TYPE": "U", "NORAD_CAT_ID": 41787, "ELEMENT_SET_NO": 999, "REV_AT_EPOCH": 49181, "BSTAR": 0.00021909813, "MEAN_MOTION_DOT": 1.198e-05, "MEAN_MOTION_DDOT": 0}, "tle": {"line1": "1 41787U 16059E   25342.97226577  .00001198  00000+0  21910-3 0  9993", "line2": "2 41787  97.8138 345.9207 0030056  92.6207 267.8440 14.67309943491815"}}, "geometry": {"type": "Point", "coordinates": [-19.94040716714616, 38.154004128555286]}}, {"type": "Feature", "properties": {"norad_id": 41790, "name": "SCATSAT 1", "group": "resource", "lat": -67.87259524239327, "lon": -160.67944073683196, "alt_km": 653.5844015921803, "timestamp": "2025-12-09T07:41:32.860362+00:00", "meta": {"OBJECT_NAME": "SCATSAT 1", "OBJECT_ID": "2016-059H", "EPOCH": "2025-12-08T17:34:57.844416", "MEAN_MOTION": 14.78916812, "ECCENTRICITY": 0.0056069, "INCLINATION": 98.1466, "RA_OF_ASC_NODE": 39.3529, "ARG_OF_PERICENTER": 140.6701, "MEAN_ANOMALY": 219.8602, "EPHEMERIS_TYPE": 0, "CLASSIFICATION_TYPE": "U", "NORAD_CAT_ID": 41790, "ELEMENT_SET_NO": 999, "REV_AT_EPOCH": 7343, "BSTAR": 0.00041381702, "MEAN_MOTION_DOT": 3.076e-05, "MEAN_MOTION_DDOT": 0}, "tle": {"line1": "1 41790U 16059H   25342.73261394  .00003076  00000+0  41382-3 0  9999", "line2": "2 41790  98.1466  39.3529 0056069 140.6701 219.8602 14.78916812 73435"}}, "geometry": {"type": "Point", "coordinates": [-160.67944073683196, -67.87259524239327]}}, {"type": "Feature", "properties": {"norad_id": 41875, "name": "GOKTURK 1A", "group": "resource", "lat": 7.952923032665769, "lon": 56.877199755634095, "alt_km": 686.20733795051, "timestamp": "2025-12-09T07:41:32.860372+00:00", "meta": {"OBJECT_NAME": "GOKTURK 1A", "OBJECT_ID": "2016-073A", "EPOCH": "2025-12-08T22:42:03.541248", "MEAN_MOTION": 14.62773017, "ECCENTRICITY": 0.00012843, "INCLINATION": 98.143, "RA_OF_ASC_NODE": 235.3615, "ARG_OF_PERICENTER": 77.994, "MEAN_ANOMALY": 282.1406, "EPHEMERIS_TYPE": 0, "CLASSIFICATION_TYPE": "U", "NORAD_CAT_ID": 41875, "ELEMENT_SET_NO": 999, "REV_AT_EPOCH": 48101, "BSTAR": 0.00018963766, "MEAN_MOTION_DOT": 9.2e-06, "MEAN_MOTION_DDOT": 0}, "tle": {"line1": "1 41875U 16073A   25342.94587432  .00000920  00000+0  18964-3 0  9991", "line2": "2 41875  98.1430 235.3615 0001284  77.9940 282.1406 14.62773017481013"}}, "geometry": {"type": "Point", "coordinates": [56.877199755634095, 7.952923032665769]}}, {"type": "Feature", "properties": {"norad_id": 41877, "name": "RESOURCESAT-2A", "group": "resource", "lat": 6.542790701153854, "lon": 52.18093699641126, "alt_km": 822.0291478711397, "timestamp": "2025-12-09T07:41:32.860383+00:00", "meta": {"OBJECT_NAME": "RESOURCESAT-2A", "OBJECT_ID": "2016-074A", "EPOCH": "2025-12-08T23:12:55.578816", "MEAN_MOTION": 14.21597039, "ECCENTRICITY": 0.00011245, "INCLINATION": 98.7759, "RA_OF_ASC_NODE": 52.845, "ARG_OF_PERICENTER": 274.1449, "MEAN_ANOMALY": 85.9599, "EPHEMERIS_TYPE": 0, "CLASSIFICATION_TYPE": "U", "NORAD_CAT_ID": 41877, "ELEMENT_SET_NO": 999, "REV_AT_EPOCH": 46727, "BSTAR": 0.00017068254, "MEAN_MOTION_DOT": 3.3e-06, "MEAN_MOTION_DDOT": 0}, "tle": {"line1": "1 41877U 16074A   25342.96730994  .00000330  00000+0  17068-3 0  9998", "line2": "2 41877  98.7759  52.8450 0001124 274.1449  85.9599 14.21597039467279"}}, "geometry": {"type": "Point", "coordinates": [52.18093699641126, 6.542790701153854]}}, {"type": "Feature", "properties": {"norad_id": 41948, "name": "CARTOSAT-2D", "group": "resource", "lat": -71.88077725181176, "lon": -162.66547061328387, "alt_km": 515.1507279917141, "timestamp": "2025-12-09T07:41:32.860393+00:00", "meta": {"OBJECT_NAME": "CARTOSAT-2D", "OBJECT_ID": "2017-008A", "EPOCH": "2025-12-08T22:40:35.783904", "MEAN_MOTION": 15.1919468, "ECCENTRICITY": 0.0004274, "INCLINATION": 97.439, "RA_OF_ASC_NODE": 40.4992, "ARG_OF_PERICENTER": 173.1191, "MEAN_ANOMALY": 187.0103, "EPHEMERIS_TYPE": 0, "CLASSIFICATION_TYPE": "U", "NORAD_CAT_ID": 41948, "ELEMENT_SET_NO": 999, "REV_AT_EPOCH": 48869, "BSTAR": 0.00017340876, "MEAN_MOTION_DOT": 3.581e-05, "MEAN_MOTION_DDOT": 0}, "tle": {"line1": "1 41948U 17008A   25342.94485861  .00003581  00000+0  17341-3 0  9998", "line2": "2 41948  97.4390  40.4992 0004274 173.1191 187.0103 15.19194680488697"}}, "geometry": {"type": "Point", "coordinates": [-162.66547061328387, -71.88077725181176]}}, {"type": "Feature", "properties": {"norad_id": 42063, "name": "SENTINEL-2B", "group": "resource", "lat": -41.58181349963408, "lon": -131.87666758527678, "alt_km": 796.091969060486, "timestamp": "2025-12-09T07:41:32.860404+00:00", "meta": {"OBJECT_NAME": "SENTINEL-2B", "OBJECT_ID": "2017-013A", "EPOCH": "2025-12-08T22:15:58.347360", "MEAN_MOTION": 14.30812743, "ECCENTRICITY": 0.00011416, "INCLINATION": 98.572, "RA_OF_ASC_NODE": 55.4271, "ARG_OF_PERICENTER": 93.0805, "MEAN_ANOMALY": 267.0508, "EPHEMERIS_TYPE": 0, "CLASSIFICATION_TYPE": "U", "NORAD_CAT_ID": 42063, "ELEMENT_SET_NO": 999, "REV_AT_EPOCH": 45743, "BSTAR": 1.2424479e-05, "MEAN_MOTION_DOT": -1.1e-07, "MEAN_MOTION_DDOT": 0}, "tle": {"line1": "1 42063U 17013A   25342.92775865 -.00000011  00000+0  12424-4 0  9991", "line2": "2 42063  98.5720  55.4271 0001141  93.0805 267.0508 14.30812743457438"}}, "geometry": {"type": "Point", "coordinates": [-131.87666758527678, -41.58181349963408]}}, {"type": "Feature", "properties": {"norad_id": 42767, "name": "CARTOSAT-2E", "group": "resource", "lat": 15.793385690840907, "lon": -136.92618587232045, "alt_km": 508.9539603768553, "timestamp": "2025-12-09T07:41:32.860414+00:00", "meta": {"OBJECT_NAME": "CARTOSAT-2E", "OBJECT_ID": "2017-036C", "EPOCH": "2025-12-08T23:04:09.348384", "MEAN_MOTION": 15.19260637, "ECCENTRICITY": 0.00023197, "INCLINATION": 97.456, "RA_OF_ASC_NODE": 40.5963, "ARG_OF_PERICENTER": 257.9522, "MEAN_ANOMALY": 102.1453, "EPHEMERIS_TYPE": 0, "CLASSIFICATION_TYPE": "U", "NORAD_CAT_ID": 42767, "ELEMENT_SET_NO": 999, "REV_AT_EPOCH": 46926, "BSTAR": 0.0002516852, "MEAN_MOTION_DOT": 5.238e-05, "MEAN_MOTION_DDOT": 0}, "tle": {"line1": "1 42767U 17036C   25342.96121931  .00005238  00000+0  25169-3 0  9994", "line2": "2 42767  97.4560  40.5963 0002319 257.9522 102.1453 15.19260637469266"}}, "geometry": {"type": "Point", "coordinates": [-136.92618587232045, 15.793385690840907]}}, {"type": "Feature", "properties": {"norad_id": 42920, "name": "FORMOSAT-5", "group": "resource", "lat": -23.727093123147814, "lon": 61.361628237811686, "alt_km": 721.6134187043272, "timestamp": "2025-12-09T07:41:32.860429+00:00", "meta": {"OBJECT_NAME": "FORMOSAT-5", "OBJECT_ID": "2017-049A", "EPOCH": "2025-12-08T21:52:21.382176", "MEAN_MOTION": 14.51001622, "ECCENTRICITY": 0.00100394, "INCLINATION": 98.2456, "RA_OF_ASC_NODE": 57.3063, "ARG_OF_PERICENTER": 308.512, "MEAN_ANOMALY": 51.5174, "EPHEMERIS_TYPE": 0, "CLASSIFICATION_TYPE": "U", "NORAD_CAT_ID": 42920, "ELEMENT_SET_NO": 999, "REV_AT_EPOCH": 43908, "BSTAR": 0.00011375104, "MEAN_MOTION_DOT": 4.06e-06, "MEAN_MOTION_DDOT": 0}, "tle": {"line1": "1 42920U 17049A   25342.91135859  .00000406  00000+0  11375-3 0  9994", "line2": "2 42920  98.2456  57.3063 0010039 308.5120  51.5174 14.51001622439088"}}, "geometry": {"type": "Point", "coordinates": [61.361628237811686, -23.727093123147814]}}]}